{
    "links": {
        "self": "http://www.neowsapp.com/rest/v1/neo/3742878?api_key=iIulBulltgU6a56xZRHN4H3l9WmuAYTsLGpBGhQ2"
    },
    "id": "3742878",
    "neo_reference_id": "3742878",
    "name": "(2016 CH137)",
    "designation": "2016 CH137",
    "nasa_jpl_url": "http://ssd.jpl.nasa.gov/sbdb.cgi?sstr=3742878",
    "absolute_magnitude_h": 25.8,
    "estimated_diameter": {
        "kilometers": {
            "estimated_diameter_min": 0.0183888672,
            "estimated_diameter_max": 0.0411187571
        },
        "meters": {
            "estimated_diameter_min": 18.388867207,
            "estimated_diameter_max": 41.1187571041
        },
        "miles": {
            "estimated_diameter_min": 0.0114263088,
            "estimated_diameter_max": 0.0255500032
        },
        "feet": {
            "estimated_diameter_min": 60.3309310875,
            "estimated_diameter_max": 134.9040630575
        }
    },
    "is_potentially_hazardous_asteroid": false,
    "close_approach_data": [
        {
            "close_approach_date": "1970-07-04",
            "close_approach_date_full": "1970-Jul-04 13:01",
            "epoch_date_close_approach": 15944460000,
            "relative_velocity": {
                "kilometers_per_second": "6.701297313",
                "kilometers_per_hour": "24124.6703269769",
                "miles_per_hour": "14990.1319595596"
            },
            "miss_distance": {
                "astronomical": "1.445201477",
                "lunar": "562.183374553",
                "kilometers": "216199062.68005399",
                "miles": "134339868.126925462"
            },
            "orbiting_body": "Juptr"
        },
        {
            "close_approach_date": "2016-02-07",
            "close_approach_date_full": "2016-Feb-07 16:45",
            "epoch_date_close_approach": 1454863500000,
            "relative_velocity": {
                "kilometers_per_second": "26.4280861977",
                "kilometers_per_hour": "95141.1103118122",
                "miles_per_hour": "59116.9860156924"
            },
            "miss_distance": {
                "astronomical": "0.0062395809",
                "lunar": "2.4271969701",
                "kilometers": "933428.012332683",
                "miles": "580005.2716617054"
            },
            "orbiting_body": "Moon"
        },
        {
            "close_approach_date": "2016-02-07",
            "close_approach_date_full": "2016-Feb-07 20:39",
            "epoch_date_close_approach": 1454877540000,
            "relative_velocity": {
                "kilometers_per_second": "26.3741887579",
                "kilometers_per_hour": "94947.0795283331",
                "miles_per_hour": "58996.4228324801"
            },
            "miss_distance": {
                "astronomical": "0.0060348052",
                "lunar": "2.3475392228",
                "kilometers": "902794.003784924",
                "miles": "560970.1814189912"
            },
            "orbiting_body": "Earth"
        },
        {
            "close_approach_date": "2017-11-23",
            "close_approach_date_full": "2017-Nov-23 00:15",
            "epoch_date_close_approach": 1511396100000,
            "relative_velocity": {
                "kilometers_per_second": "6.2997308993",
                "kilometers_per_hour": "22679.0312374563",
                "miles_per_hour": "14091.8680486295"
            },
            "miss_distance": {
                "astronomical": "1.3952841295",
                "lunar": "542.7655263755",
                "kilometers": "208731533.818004165",
                "miles": "129699760.856680877"
            },
            "orbiting_body": "Juptr"
        },
        {
            "close_approach_date": "2019-07-07",
            "close_approach_date_full": "2019-Jul-07 22:43",
            "epoch_date_close_approach": 1562539380000,
            "relative_velocity": {
                "kilometers_per_second": "30.2326242763",
                "kilometers_per_hour": "108837.4473947002",
                "miles_per_hour": "67627.357243668"
            },
            "miss_distance": {
                "astronomical": "0.1451836333",
                "lunar": "56.4764333537",
                "kilometers": "21719162.300541071",
                "miles": "13495661.6514099398"
            },
            "orbiting_body": "Earth"
        }
    ],
    "orbital_data": {
        "orbit_id": "7",
        "orbit_determination_date": "2017-04-06 08:28:27",
        "first_observation_date": "2016-02-09",
        "last_observation_date": "2016-02-13",
        "data_arc_in_days": 4,
        "observations_used": 71,
        "orbit_uncertainty": "7",
        "minimum_orbit_intersection": ".00571754",
        "jupiter_tisserand_invariant": "2.983",
        "epoch_osculation": "2459000.5",
        "eccentricity": ".8113342937473277",
        "semi_major_axis": "2.361669187947086",
        "inclination": "8.104913376805266",
        "ascending_node_longitude": "316.2531253181108",
        "orbital_period": "1325.644340758568",
        "perihelion_distance": ".4455659852792121",
        "perihelion_argument": "79.4436873334471",
        "aphelion_distance": "4.27777239061496",
        "perihelion_time": "2458716.012993461258",
        "mean_anomaly": "77.25701321618612",
        "mean_motion": ".2715660520181445",
        "equinox": "J2000",
        "orbit_class": {
            "orbit_class_type": "APO",
            "orbit_class_description": "Near-Earth asteroid orbits which cross the Earth’s orbit similar to that of 1862 Apollo",
            "orbit_class_range": "a (semi-major axis) > 1.0 AU; q (perihelion) < 1.017 AU"
        }
    },
    "is_sentry_object": false
}